*******************************************************************************
 Revised: Feb 22, 2016           Hubble Space Telescope                     -48
                                 http://hubblesite.org
 
 BACKGROUND:
  Launched: April 24, 1990 [from space shuttle Discovery (STS-31)]
  Deployed: April 25, 1990
 
  NOTE: HST ephemeris data can be unreliable during times of the following
        space shuttle servicing missions
 
         Servicing Mission 1 : 1993 (December 02-14)
         Servicing Mission 2 : 1997 (February 11-21)
         Servicing Mission 3A: 1999 (December 19-28)
         Servicing Mission 3B: 2002 (March    01-12)
         Servicing Mission 4 : 2009 (May      11-25)
 
 HUBBLE SPACE TELESCOPE:
   Length          : 43.5 ft (13.2 m)   Weight      : 24,500 lb (11,110 kg)
   Maximum Diameter: 14 ft (4.2 m)      Data return : ~120 Gigabytes (GB)/week
 
 Generic orbit facts:
   Altitude     : 569 km, or 353 miles  Inclination  : 28.5 deg. to equator
   Orbit period : 97 minutes            Orbital speed: 28,000 kph (17500 mph)
 
 SPACECRAFT TRAJECTORY:
   The trajectory here is a concatenation of publicly released JSpOC two-line
   elements. These can usually only be propagated reliably "days" into the
   future, and are updated frequently to maintain accuracy.
*******************************************************************************
 
 
*******************************************************************************
Ephemeris / WWW_USER Mon Feb 22 07:22:14 2016 Pasadena, USA      / Horizons    
*******************************************************************************
Target body name: Hubble Space Telescope (-48)    {source: hst}
Center body name: Solar System Barycenter (0)     {source: DE431mx}
Center-site name: BODY CENTER
*******************************************************************************
Start time      : A.D. 2012-Sep-27 00:00:00.0000 TDB
Stop  time      : A.D. 2013-Aug-20 00:00:00.0000 TDB
Step-size       : 60 minutes
*******************************************************************************
Center geodetic : 0.00000000,0.00000000,0.0000000 {E-lon(deg),Lat(deg),Alt(km)}
Center cylindric: 0.00000000,0.00000000,0.0000000 {E-lon(deg),Dxy(km),Dz(km)}
Center radii    : (undefined)                                                  
Output units    : KM-S                                                         
Output format   : 03
Reference frame : ICRF/J2000.0                                                 
Output type     : GEOMETRIC cartesian states
Coordinate systm: Earth Mean Equator and Equinox of Reference Epoch            
*******************************************************************************
JDTDB
   X     Y     Z
   VX    VY    VZ
   LT    RG    RR
*******************************************************************************
$$SOE
2456479.500000000 = A.D. 2013-Jul-06 00:00:00.0000 (TDB)
 X = 3.656625541895682E+07 Y =-1.357986733140444E+08 Z =-5.888119617341186E+07
 VX= 3.078286071950702E+01 VY= 1.274403562125444E+01 VZ=-7.720917784364070E-01
 LT= 5.085661977733764E+02 RG= 1.524643104861946E+08 RR=-3.670022795389114E+00
2456479.541666667 = A.D. 2013-Jul-06 01:00:00.0000 (TDB)
 X = 3.665632688993527E+07 Y =-1.357749156193568E+08 Z =-5.886784198274930E+07
 VX= 3.181326829172174E+01 VY= 1.045499950518014E-02 VZ= 4.884736082874015E+00
 LT= 5.085505640471411E+02 RG= 1.524596236129788E+08 RR= 5.753550629480976E+00
2456479.583333333 = A.D. 2013-Jul-06 02:00:00.0000 (TDB)
 X = 3.676666573590156E+07 Y =-1.357434866856695E+08 Z =-5.886365563961142E+07
 VX= 2.141873458036591E+01 VY= 9.274068463765593E+00 VZ= 3.522851656452253E+00
 LT= 5.085404450882245E+02 RG= 1.524565900254129E+08 RR=-4.452197578947162E+00
2456479.625000000 = A.D. 2013-Jul-06 03:00:00.0000 (TDB)
 X = 3.687031806527909E+07 Y =-1.357316976947640E+08 Z =-5.884844828513662E+07
 VX= 3.488021731020592E+01 VY= 9.140143426720822E+00 VZ=-2.165941301345038E-01
 LT= 5.085693482961083E+02 RG= 1.524652549891484E+08 RR= 3.816197362547746E-01
2456479.666666667 = A.D. 2013-Jul-06 04:00:00.0000 (TDB)
 X = 3.696299314210596E+07 Y =-1.356999177025283E+08 Z =-5.883928836777753E+07
 VX= 2.646845052630147E+01 VY= 1.215075716934377E-01 VZ= 6.365110088336047E+00
 LT= 5.085380442681900E+02 RG= 1.524558702776735E+08 RR= 3.852564278153467E+00
2456479.708333333 = A.D. 2013-Jul-06 05:00:00.0000 (TDB)
 X = 3.707759506944282E+07 Y =-1.356761769179416E+08 Z =-5.883265137000731E+07
 VX= 2.472831646507437E+01 VY= 1.291833116809436E+01 VZ= 9.914065497367330E-01
 LT= 5.085518447700225E+02 RG= 1.524600075640395E+08 RR=-5.864950229238842E+00
2456479.750000000 = A.D. 2013-Jul-06 06:00:00.0000 (TDB)
 X = 3.717251359948290E+07 Y =-1.356609954022186E+08 Z =-5.881636192492380E+07
 VX= 3.554119253208869E+01 VY= 4.123769645935797E+00 VZ= 1.905113443512375E+00
 LT= 5.085629149302572E+02 RG= 1.524633263145867E+08 RR= 4.261148839306050E+00
2456479.791666667 = A.D. 2013-Jul-06 07:00:00.0000 (TDB)
 X = 3.727292760103245E+07 Y =-1.356255836322233E+08 Z =-5.881086095968962E+07
 VX= 2.218608684392084E+01 VY= 3.664570477404607E+00 VZ= 6.033910186589099E+00
 LT= 5.085325202644087E+02 RG= 1.524542142230019E+08 RR=-1.635150214084432E-01
2456479.833333333 = A.D. 2013-Jul-06 08:00:00.0000 (TDB)
 X = 3.738527994036973E+07 Y =-1.356096387189275E+08 Z =-5.879992981755070E+07
 VX= 2.999479359778949E+01 VY= 1.318265961906707E+01 VZ=-5.919988093198389E-01
 LT= 5.085629055809807E+02 RG= 1.524633235117441E+08 RR=-4.142127102460708E+00
2456479.875000000 = A.D. 2013-Jul-06 09:00:00.0000 (TDB)
 X = 3.747542372452752E+07 Y =-1.355865205542511E+08 Z =-5.878565587441493E+07
 VX= 3.242022200501924E+01 VY= 4.065649432477203E-01 VZ= 4.512818288640844E+00
 LT= 5.085497812619944E+02 RG= 1.524593889398956E+08 RR= 5.867450041137875E+00
2456479.916666667 = A.D. 2013-Jul-06 10:00:00.0000 (TDB)
 X = 3.758455591027389E+07 Y =-1.355537129226746E+08 Z =-5.878135590367620E+07
 VX= 2.122341928676802E+01 VY= 8.783188304180054E+00 VZ= 4.076388147624385E+00
 LT= 5.085365493552198E+02 RG= 1.524554221140397E+08 RR=-4.148993921474204E+00
2456479.958333333 = A.D. 2013-Jul-06 11:00:00.0000 (TDB)
 X = 3.768932796245197E+07 Y =-1.355414013734716E+08 Z =-5.876644535416432E+07
 VX= 3.441013310555567E+01 VY= 9.933841834069586E+00 VZ=-3.977309822820105E-01
 LT= 5.085671391475075E+02 RG= 1.524645927030593E+08 RR=-1.717042289310201E-01
2456480.000000000 = A.D. 2013-Jul-06 12:00:00.0000 (TDB)
 X = 3.778115365098529E+07 Y =-1.355099242836325E+08 Z =-5.875620588994332E+07
 VX= 2.718098115944071E+01 VY= 7.544374502701068E-03 VZ= 6.279684591441575E+00
 LT= 5.085364525295221E+02 RG= 1.524553930864258E+08 RR= 4.309037770809981E+00
2456480.041666667 = A.D. 2013-Jul-06 13:00:00.0000 (TDB)
 X = 3.789532691767986E+07 Y =-1.354844754849313E+08 Z =-5.874999045426219E+07
 VX= 2.406726656158171E+01 VY= 1.278373362151093E+01 VZ= 1.508423717554960E+00
 LT= 5.085475386943558E+02 RG= 1.524587166350310E+08 RR=-5.959517495255983E+00
2456480.083333333 = A.D. 2013-Jul-06 14:00:00.0000 (TDB)
 X = 3.799119563043813E+07 Y =-1.354695707455726E+08 Z =-5.873341390256049E+07
 VX= 3.561567800469275E+01 VY= 4.927501617953119E+00 VZ= 1.488930694744911E+00
 LT= 5.085616414045456E+02 RG= 1.524629445211833E+08 RR= 3.922957677791472E+00
2456480.125000000 = A.D. 2013-Jul-06 15:00:00.0000 (TDB)
 X = 3.809021644645747E+07 Y =-1.354336754831508E+08 Z =-5.872710998440226E+07
 VX= 2.260467903559587E+01 VY= 3.178187144017957E+00 VZ= 6.311452069178993E+00
 LT= 5.085295780653900E+02 RG= 1.524533321739261E+08 RR= 3.931052880140847E-01
2456480.166666667 = A.D. 2013-Jul-06 16:00:00.0000 (TDB)
 X = 3.820306366535227E+07 Y =-1.354163205750537E+08 Z =-5.871680131312424E+07
 VX= 2.919678798847529E+01 VY= 1.355881803945471E+01 VZ=-3.439162702054315E-01
 LT= 5.085590953670044E+02 RG= 1.524621812383307E+08 RR=-4.594482585167121E+00
2456480.208333333 = A.D. 2013-Jul-06 17:00:00.0000 (TDB)
 X = 3.829340787161680E+07 Y =-1.353938510209892E+08 Z =-5.870168499659272E+07
 VX= 3.297479246395584E+01 VY= 8.687167113119356E-01 VZ= 4.108463523075535E+00
 LT= 5.085487149523147E+02 RG= 1.524590692682958E+08 RR= 5.928965387890943E+00
2456480.250000000 = A.D. 2013-Jul-06 18:00:00.0000 (TDB)
 X = 3.840126594354884E+07 Y =-1.353597434197854E+08 Z =-5.869715243697172E+07
 VX= 2.110769827323715E+01 VY= 8.261875767096571E+00 VZ= 4.606708206913254E+00
 LT= 5.085323631095343E+02 RG= 1.524541671091558E+08 RR=-3.792377171254653E+00
2456480.291666667 = A.D. 2013-Jul-06 19:00:00.0000 (TDB)
 X = 3.850711229322642E+07 Y =-1.353467922510846E+08 Z =-5.868262779022928E+07
 VX= 3.387760766720996E+01 VY= 1.070311197408675E+01 VZ=-5.142427568884456E-01
 LT= 5.085644114408028E+02 RG= 1.524637749571616E+08 RR=-7.472326712715726E-01
2456480.333333333 = A.D. 2013-Jul-06 20:00:00.0000 (TDB)
 X = 3.859820750518585E+07 Y =-1.353157053872186E+08 Z =-5.867130501226201E+07
 VX= 2.789752023196700E+01 VY=-4.247819007741516E-02 VZ= 6.127618190594065E+00
 LT= 5.085346682323021E+02 RG= 1.524548581675763E+08 RR= 4.742563758733811E+00
2456480.375000000 = A.D. 2013-Jul-06 21:00:00.0000 (TDB)
 X = 3.871182042213365E+07 Y =-1.352885465920773E+08 Z =-5.866542833293211E+07
 VX= 2.345978140942747E+01 VY= 1.258373050086936E+01 VZ= 2.052906567765795E+00
 LT= 5.085428137197363E+02 RG= 1.524573001232758E+08 RR=-5.999702260833654E+00
2456480.416666667 = A.D. 2013-Jul-06 22:00:00.0000 (TDB)
 X = 3.880869275775754E+07 Y =-1.352738361947314E+08 Z =-5.864868468643904E+07
 VX= 3.560841421640112E+01 VY= 5.758438062016239E+00 VZ= 1.100561758403411E+00
 LT= 5.085599365928659E+02 RG= 1.524624334314994E+08 RR= 3.531384670387890E+00
2456480.458333333 = A.D. 2013-Jul-06 23:00:00.0000 (TDB)
 X = 3.890636555903723E+07 Y =-1.352375771924005E+08 Z =-5.864149503911186E+07
 VX= 2.308049407668728E+01 VY= 2.718938760720115E+00 VZ= 6.522453838110311E+00
 LT= 5.085264494195429E+02 RG= 1.524523942294974E+08 RR= 9.694108488951211E-01
